OBJECT_NAME,OBJECT_ID,EPOCH,MEAN_MOTION,ECCENTRICITY,INCLINATION,RA_OF_ASC_NODE,ARG_OF_PERICENTER,MEAN_ANOMALY,EPHEMERIS_TYPE,CLASSIFICATION_TYPE,NORAD_CAT_ID,ELEMENT_SET_NO,REV_AT_EPOCH,BSTAR,MEAN_MOTION_DOT,MEAN_MOTION_DDOT
STARLINK-3283,2021-125Z,2023-11-12T16:28:14.477088,15.08844986,.0001253,53.2183,95.9590,88.9180,271.1956,0,U,50179,999,10809,.27002E-3,.4013E-4,0
STARLINK-3265,2021-125AA,2023-11-12T12:57:39.609792,15.08841619,.0001582,53.2185,96.6210,112.3668,247.7492,0,U,50180,999,10860,.70072E-4,.827E-5,0
STARLINK-3285,2021-125AB,2023-11-12T12:47:04.327872,15.08838539,.0001335,53.2166,96.6540,87.9323,272.1822,0,U,50181,999,10856,.35513E-4,.277E-5,0
STARLINK-3277,2021-125AC,2023-11-12T13:49:15.239712,15.08840303,.0001372,53.2183,96.2978,90.0780,270.0370,0,U,50182,999,10860,.11061E-3,.1473E-4,0
STARLINK-3281,2021-125AD,2023-11-12T19:01:55.883424,15.08843980,.0001263,53.2173,95.4715,88.8049,271.3087,0,U,50183,999,10551,.78336E-4,.959E-5,0
STARLINK-3279,2021-125AF,2023-11-12T19:17:49.685856,15.08857701,.0001248,53.2165,95.4620,98.5633,261.5501,0,U,50185,999,10812,.38822E-3,.5899E-4,0
STARLINK-3274,2021-125AG,2023-11-12T10:00:05.977440,15.08840709,.0001472,53.2151,107.1638,86.4637,273.6523,0,U,50186,999,10839,.28758E-3,.4292E-4,0
STARLINK-3272,2021-125AH,2023-11-12T13:50:36.317472,15.08843222,.0001371,53.2167,86.4464,87.1564,272.9585,0,U,50187,999,10868,.44248E-4,.416E-5,0
STARLINK-3275,2021-125AJ,2023-11-12T15:14:43.484064,15.15157303,.0000906,53.2229,69.4421,43.2849,316.8217,0,U,50188,999,10585,-.3081E-3,-.6148E-4,0
STARLINK-3276,2021-125AK,2023-11-12T14:01:15.890880,15.08836335,.0001394,53.2149,96.4223,77.6955,282.4193,0,U,50189,999,10860,.98857E-4,.1286E-4,0
STARLINK-3268,2021-125AL,2023-11-12T15:10:05.369376,15.08848220,.0001372,53.2166,86.1962,92.5046,267.6103,0,U,50190,999,10822,.84304E-4,.1054E-4,0
STARLINK-3273,2021-125AM,2023-11-12T13:47:57.325056,15.08838762,.0001415,53.2170,106.4556,101.8389,258.2762,0,U,50191,999,10841,.57256E-4,.623E-5,0
STARLINK-3259,2021-125AN,2023-11-12T13:29:25.567872,15.08852489,.0001233,53.2170,86.5127,74.5290,285.5838,0,U,50192,999,10869,.39327E-3,.5979E-4,0
STARLINK-3261,2021-125AP,2023-11-12T13:45:18.565920,15.08840932,.0001914,53.2183,86.4620,83.7600,276.3610,0,U,50193,999,10874,.35983E-4,.285E-5,0
STARLINK-3269,2021-125AQ,2023-11-12T13:25:29.391744,15.08847701,.0001517,53.2167,86.5333,85.7282,274.3884,0,U,50194,999,10874,.28135E-3,.4193E-4,0
STARLINK-3266,2021-125AR,2023-11-12T18:26:09.417984,15.08850261,.0001347,53.2174,85.5828,97.9811,262.1334,0,U,50195,999,10824,.21183E-3,.3086E-4,0
STARLINK-3263,2021-125AS,2023-11-12T18:06:20.672352,15.08830938,.0001175,53.2160,85.6971,92.7156,267.3970,0,U,50196,999,10824,.13257E-3,.1822E-4,0
STARLINK-3267,2021-125AT,2023-11-12T18:04:57.432864,15.08845682,.0001458,53.2167,85.6520,85.3287,274.7872,0,U,50197,999,10824,.35055E-3,.5296E-4,0
STARLINK-3264,2021-125AU,2023-11-12T17:43:46.033536,15.08844512,.0001187,53.2175,85.7238,87.3139,272.7989,0,U,50198,999,10824,.14372E-3,.2E-4,0
STARLINK-3270,2021-125AV,2023-11-12T14:06:30.321216,15.08839452,.0001429,53.2165,86.3948,92.5945,267.5210,0,U,50199,999,10869,.11678E-3,.1571E-4,0
STARLINK-3235,2021-125AW,2023-11-12T13:09:35.934048,15.08834422,.0001194,53.2160,86.5862,91.1262,268.9867,0,U,50200,999,10870,.39578E-3,.6016E-4,0
STARLINK-3255,2021-125AX,2023-11-12T14:29:04.852896,15.08836253,.000134,53.2172,86.3393,84.7592,275.3553,0,U,50201,999,10822,-.81476E-4,-.1584E-4,0
STARLINK-3256,2021-125AY,2023-11-12T15:36:36.184320,15.08825849,.0001463,53.2169,86.1144,103.3960,256.7195,0,U,50202,999,10822,.7465E-3,.11608E-3,0
STARLINK-3257,2021-125AZ,2023-11-12T17:49:04.382112,15.08841119,.0001402,53.2190,85.7063,84.7768,275.3384,0,U,50203,999,10564,.75201E-4,.909E-5,0
STARLINK-3254,2021-125BA,2023-11-12T14:13:11.123040,15.08836739,.0001442,53.2182,86.3867,95.7994,264.3162,0,U,50204,999,10875,.659E-4,.761E-5,0
STARLINK-3260,2021-125BB,2023-11-12T12:47:04.469568,15.08840314,.0001437,53.2183,56.6489,89.5621,270.5535,0,U,50205,999,10911,.11711E-3,.1576E-4,0
STARLINK-3258,2021-125BC,2023-11-12T14:02:33.775296,15.08843538,.0001252,53.2166,86.3031,89.6026,270.5110,0,U,50206,999,10662,.19921E-3,.2884E-4,0
STARLINK-3262,2021-125BD,2023-11-12T15:57:47.432448,15.08839088,.0001365,53.2176,86.0521,75.4661,284.6482,0,U,50207,999,10670,.67625E-4,.788E-5,0
TURKSAT 5B,2021-126A,2023-11-12T18:41:13.816896,1.00273567,.0003217,0.0698,341.3776,312.8878,79.7007,0,U,50212,999,679,0,.17E-5,0
INMARSAT 6-F1,2021-128A,2023-11-12T18:53:08.100384,1.00270688,.000099,0.0171,299.5744,31.8548,87.3149,0,U,50319,999,674,0,-.148E-5,0
