STARLINK-3283           
1 50179U 21125Z   23316.68627867  .00004013  00000+0  27002-3 0  9999
2 50179  53.2183  95.9590 0001253  88.9180 271.1956 15.08844986108090
STARLINK-3265           
1 50180U 21125AA  23316.54004178  .00000827  00000+0  70072-4 0  9995
2 50180  53.2185  96.6210 0001582 112.3668 247.7492 15.08841619108600
STARLINK-3285           
1 50181U 21125AB  23316.53268898  .00000277  00000+0  35513-4 0  9996
2 50181  53.2166  96.6540 0001335  87.9323 272.1822 15.08838539108568
STARLINK-3277           
1 50182U 21125AC  23316.57587083  .00001473  00000+0  11061-3 0  9991
2 50182  53.2183  96.2978 0001372  90.0780 270.0370 15.08840303108604
STARLINK-3281           
1 50183U 21125AD  23316.79300791  .00000959  00000+0  78336-4 0  9992
2 50183  53.2173  95.4715 0001263  88.8049 271.3087 15.08843980105516
STARLINK-3279           
1 50185U 21125AF  23316.80404729  .00005899  00000+0  38822-3 0  9995
2 50185  53.2165  95.4620 0001248  98.5633 261.5501 15.08857701108122
STARLINK-3274           
1 50186U 21125AG  23316.41673585  .00004292  00000+0  28758-3 0  9994
2 50186  53.2151 107.1638 0001472  86.4637 273.6523 15.08840709108394
STARLINK-3272           
1 50187U 21125AH  23316.57680923  .00000416  00000+0  44248-4 0  9993
2 50187  53.2167  86.4464 0001371  87.1564 272.9585 15.08843222108688
STARLINK-3275           
1 50188U 21125AJ  23316.63522551 -.00006148  00000+0 -30810-3 0  9992
2 50188  53.2229  69.4421 0000906  43.2849 316.8217 15.15157303105856
STARLINK-3276           
1 50189U 21125AK  23316.58421170  .00001286  00000+0  98857-4 0  9994
2 50189  53.2149  96.4223 0001394  77.6955 282.4193 15.08836335108607
STARLINK-3268           
1 50190U 21125AL  23316.63200659  .00001054  00000+0  84304-4 0  9994
2 50190  53.2166  86.1962 0001372  92.5046 267.6103 15.08848220108227
STARLINK-3273           
1 50191U 21125AM  23316.57496904  .00000623  00000+0  57256-4 0  9995
2 50191  53.2170 106.4556 0001415 101.8389 258.2762 15.08838762108418
STARLINK-3259           
1 50192U 21125AN  23316.56210148  .00005979  00000+0  39327-3 0  9996
2 50192  53.2170  86.5127 0001233  74.5290 285.5838 15.08852489108695
STARLINK-3261           
1 50193U 21125AP  23316.57313155  .00000285  00000+0  35983-4 0  9990
2 50193  53.2183  86.4620 0001914  83.7600 276.3610 15.08840932108742
STARLINK-3269           
1 50194U 21125AQ  23316.55936796  .00004193  00000+0  28135-3 0  9993
2 50194  53.2167  86.5333 0001517  85.7282 274.3884 15.08847701108746
STARLINK-3266           
1 50195U 21125AR  23316.76816456  .00003086  00000+0  21183-3 0  9993
2 50195  53.2174  85.5828 0001347  97.9811 262.1334 15.08850261108242
STARLINK-3263           
1 50196U 21125AS  23316.75440593  .00001822  00000+0  13257-3 0  9997
2 50196  53.2160  85.6971 0001175  92.7156 267.3970 15.08830938108244
STARLINK-3267           
1 50197U 21125AT  23316.75344251  .00005296  00000+0  35055-3 0  9991
2 50197  53.2167  85.6520 0001458  85.3287 274.7872 15.08845682108244
STARLINK-3264           
1 50198U 21125AU  23316.73872724  .00002000  00000+0  14372-3 0  9990
2 50198  53.2175  85.7238 0001187  87.3139 272.7989 15.08844512108246
STARLINK-3270           
1 50199U 21125AV  23316.58785094  .00001571  00000+0  11678-3 0  9995
2 50199  53.2165  86.3948 0001429  92.5945 267.5210 15.08839452108698
STARLINK-3235           
1 50200U 21125AW  23316.54833257  .00006016  00000+0  39578-3 0  9997
2 50200  53.2160  86.5862 0001194  91.1262 268.9867 15.08834422108706
STARLINK-3255           
1 50201U 21125AX  23316.60352839 -.00001584  00000+0 -81476-4 0  9999
2 50201  53.2172  86.3393 0001340  84.7592 275.3553 15.08836253108229
STARLINK-3256           
1 50202U 21125AY  23316.65041880  .00011608  00000+0  74650-3 0  9997
2 50202  53.2169  86.1144 0001463 103.3960 256.7195 15.08825849108225
STARLINK-3257           
1 50203U 21125AZ  23316.74241183  .00000909  00000+0  75201-4 0  9992
2 50203  53.2190  85.7063 0001402  84.7768 275.3384 15.08841119105644
STARLINK-3254           
1 50204U 21125BA  23316.59248985  .00000761  00000+0  65900-4 0  9994
2 50204  53.2182  86.3867 0001442  95.7994 264.3162 15.08836739108751
STARLINK-3260           
1 50205U 21125BB  23316.53269062  .00001576  00000+0  11711-3 0  9993
2 50205  53.2183  56.6489 0001437  89.5621 270.5535 15.08840314109113
STARLINK-3258           
1 50206U 21125BC  23316.58511314  .00002884  00000+0  19921-3 0  9993
2 50206  53.2166  86.3031 0001252  89.6026 270.5110 15.08843538106626
STARLINK-3262           
1 50207U 21125BD  23316.66513232  .00000788  00000+0  67625-4 0  9990
2 50207  53.2176  86.0521 0001365  75.4661 284.6482 15.08839088106704
TURKSAT 5B              
1 50212U 21126A   23316.77863214  .00000170  00000+0  00000+0 0  9991
2 50212   0.0698 341.3776 0003217 312.8878  79.7007  1.00273567  6799
INMARSAT 6-F1           
1 50319U 21128A   23316.78689931 -.00000148  00000+0  00000+0 0  9990
2 50319   0.0171 299.5744 0000990  31.8548  87.3149  1.00270688  6747
